[{"OBJECT_NAME":"ALOS-4 (DAICHI-4)","OBJECT_ID":"2024-123A","EPOCH":"2026-03-08T18:59:33.675072","MEAN_MOTION":14.79484045,"ECCENTRICITY":0.00014902,"INCLINATION":97.9194,"RA_OF_ASC_NODE":166.4039,"ARG_OF_PERICENTER":100.3284,"MEAN_ANOMALY":259.8096,"EPHEMERIS_TYPE":0,"CLASSIFICATION_TYPE":"U","NORAD_CAT_ID":60182,"ELEMENT_SET_NO":999,"REV_AT_EPOCH":9103,"BSTAR":0.00034629245,"MEAN_MOTION_DOT":2.536e-5,"MEAN_MOTION_DDOT":0},{"OBJECT_NAME":"NOAA 17 DEB","OBJECT_ID":"2002-032BH","EPOCH":"2026-03-08T13:29:57.200640","MEAN_MOTION":14.74112422,"ECCENTRICITY":0.00231821,"INCLINATION":98.7444,"RA_OF_ASC_NODE":103.0976,"ARG_OF_PERICENTER":249.0913,"MEAN_ANOMALY":110.7811,"EPHEMERIS_TYPE":0,"CLASSIFICATION_TYPE":"U","NORAD_CAT_ID":48724,"ELEMENT_SET_NO":999,"REV_AT_EPOCH":26297,"BSTAR":0.0030823368,"MEAN_MOTION_DOT":0.00020397,"MEAN_MOTION_DDOT":0}]
